[{"OBJECT_NAME":"STARLINK-6165","OBJECT_ID":"2023-090AC","EPOCH":"2026-03-09T22:14:46.541184","MEAN_MOTION":15.02538238,"ECCENTRICITY":0.00013725,"INCLINATION":43.0039,"RA_OF_ASC_NODE":272.9651,"ARG_OF_PERICENTER":278.6107,"MEAN_ANOMALY":81.458,"EPHEMERIS_TYPE":0,"CLASSIFICATION_TYPE":"U","NORAD_CAT_ID":57127,"ELEMENT_SET_NO":999,"REV_AT_EPOCH":15026,"BSTAR":3.7116568e-5,"MEAN_MOTION_DOT":2.98e-6,"MEAN_MOTION_DDOT":0},{"OBJECT_NAME":"ICEYE-X33","OBJECT_ID":"2024-149CJ","EPOCH":"2026-03-09T17:04:13.303776","MEAN_MOTION":15.0113344,"ECCENTRICITY":0.00060627,"INCLINATION":97.7033,"RA_OF_ASC_NODE":148.5516,"ARG_OF_PERICENTER":122.8099,"MEAN_ANOMALY":237.371,"EPHEMERIS_TYPE":0,"CLASSIFICATION_TYPE":"U","NORAD_CAT_ID":60548,"ELEMENT_SET_NO":999,"REV_AT_EPOCH":8528,"BSTAR":0.00045891369,"MEAN_MOTION_DOT":5.822e-5,"MEAN_MOTION_DDOT":0}]
